STARLINK-31121          
1 58685U 23211U   26158.10396212 -.00000474  00000+0 -77113-5 0  9997
2 58685  43.0031 299.9439 0000810 273.3100  86.7659 15.27578801136145
STARLINK-31137          
1 58686U 23211V   26157.68223811  .00000793  00000+0  38354-4 0  9999
2 58686  43.0020 302.8001 0002671 274.0634  85.9912 15.27582564136076
STARLINK-31106          
1 58689U 23211Y   26157.67453127  .00012110  00000+0  44867-3 0  9997
2 58689  43.0034 302.7449 0001801 243.8058 116.2608 15.27593653136078
STARLINK-11072 [DTC]    
1 58705U 24002A   26156.40214589  .00003023  00000+0  29832-4 0  9991
2 58705  53.1592 201.6283 0001046  54.4062 305.7053 15.69683113140210
STARLINK-11075 [DTC]    
1 58706U 24002B   26157.83217876  .00000922  00000+0  12462-4 0  9998
2 58706  53.1604 194.1838 0001084  86.3668 273.7474 15.69719334140446
STARLINK-11077 [DTC]    
1 58707U 24002C   26157.81265171 -.00000627  00000+0 -31838-6 0  9992
2 58707  53.1587 194.7708 0000849 104.7802 255.3310 15.69717990140432
STARLINK-11079 [DTC]    
1 58708U 24002D   26156.71560919 -.00006814  00000+0 -51396-4 0  9992
2 58708  53.1586 200.0213 0000837  58.2815 301.8284 15.69728499140262
STARLINK-11076 [DTC]    
1 58709U 24002E   26156.39232649 -.00000619  00000+0 -25586-6 0  9994
2 58709  53.1593 201.5602 0000838  87.9992 272.1122 15.69704772140219
STARLINK-11078 [DTC]    
1 58710U 24002F   26157.72449481 -.00003791  00000+0 -26492-4 0  9997
2 58710  53.1592 194.9387 0001033  89.1949 270.9188 15.69673542140420
STARLINK-31031          
1 58711U 24002G   26158.30490030  .00005354  00000+0  16946-3 0  9996
2 58711  53.1580 173.1358 0001237  82.5501 277.5642 15.34400995135741
STARLINK-31029          
1 58712U 24002H   26157.75205010  .00000197  00000+0  18763-4 0  9997
2 58712  53.1583 176.0759 0001017  79.0251 281.0865 15.30196052135650
STARLINK-30973          
1 58713U 24002J   26157.75839583  .00003532  00000+0  13138-3 0  9992
2 58713  53.1589 176.1150 0000894  95.3460 264.7643 15.30182676135657
STARLINK-31100          
1 58714U 24002K   26156.38993956 -.00000440  00000+0 -27216-5 0  9997
2 58714  53.1590 182.5045 0001168  82.2571 277.8563 15.30190955135449
STARLINK-31102          
1 58715U 24002L   26157.75443234  .00000189  00000+0  16723-4 0  9997
2 58715  53.1603 176.0864 0000929  87.4134 272.6975 15.34391023135654
STARLINK-31098          
1 58716U 24002M   26156.39205243 -.00000443  00000+0 -28240-5 0  9996
2 58716  53.1594 182.5151 0001417  82.5955 277.5207 15.30190343135442
STARLINK-31093          
1 58717U 24002N   26156.33412629 -.00000505  00000+0 -49409-5 0  9998
2 58717  53.1597 182.8800 0001115  87.6999 272.4129 15.30190432135434
STARLINK-31097          
1 58718U 24002P   26157.76788018 -.00000340  00000+0  65448-6 0  9993
2 58718  53.1594 176.1684 0001212  95.6491 264.4648 15.30192459135654
STARLINK-31051          
1 58719U 24002Q   26157.77316127 -.00003547  00000+0 -10767-3 0  9997
2 58719  53.1594 176.2009 0000867  82.9763 277.1336 15.30202153135651
STARLINK-31027          
1 58720U 24002R   26158.27760366  .00085252  00000+0  70441-3 0  9999
2 58720  53.1430 150.6173 0007112 324.5961  35.4584 15.69575138136058
STARLINK-30972          
1 58721U 24002S   26157.75943628 -.00000248  00000+0  37491-5 0  9999
2 58721  53.1594 176.1161 0001095  89.4721 270.6405 15.30193339135652
STARLINK-31040          
1 58722U 24002T   26158.32593491 -.00001210  00000+0 -24685-4 0  9994
2 58722  53.1602 173.2522 0001135  81.5877 278.5254 15.34385422135741
STARLINK-31033          
1 58723U 24002U   26157.76682494 -.00000497  00000+0 -46625-5 0  9999
2 58723  53.1594 176.1573 0001292  90.1927 269.9222 15.30189876135656
STARLINK-30893          
1 58724U 24002V   26158.31540501  .00002444  00000+0  83431-4 0  9991
2 58724  53.1593 173.1954 0001188  87.8085 272.3053 15.34405910135731
STARLINK-30856          
1 58725U 24002W   26157.76260253  .00000208  00000+0  19147-4 0  9992
2 58725  53.1590 176.1354 0000988  91.3577 268.7537 15.30195312135654
STARLINK-31115          
1 58729U 24005B   26158.03859145 -.00000326  00000+0 -23011-5 0  9993
2 58729  43.0005  75.5575 0001809 269.2638  90.8006 15.27580071134099
STARLINK-31180          
1 58732U 24005E   26158.07057487  .00000595  00000+0  31124-4 0  9999
2 58732  42.9995  74.9556 0000609 271.5053  88.5729 15.27575944134106
STARLINK-31164          
1 58733U 24005F   26158.04615724  .00000793  00000+0  38364-4 0  9994
2 58733  43.0039  74.7673 0001994 269.1122  90.9501 15.27581694134108
STARLINK-31152          
1 58734U 24005G   26158.05001386  .00000272  00000+0  19419-4 0  9991
2 58734  43.0047  74.7962 0002358 277.1883  82.8700 15.27577779134118
STARLINK-31157          
1 58735U 24005H   26157.46540182 -.00000065  00000+0  71668-5 0  9994
2 58735  43.0021  78.1468 0000937 258.2840 101.7907 15.27572974134026
STARLINK-31076          
1 58736U 24005J   26157.46924031  .00000826  00000+0  39521-4 0  9999
2 58736  43.0042  78.1752 0001079 270.3932  89.6796 15.27583466134063
STARLINK-31101          
1 58737U 24005K   26158.06800056 -.00005303  00000+0 -18334-3 0  9992
2 58737  43.0072  74.9268 0001173 272.8054  87.2664 15.27577412134107
STARLINK-31108          
1 58738U 24005L   26158.06157640  .00000810  00000+0  38954-4 0  9994
2 58738  43.0017  74.8769 0000359 245.6417 114.4397 15.27580924134106
STARLINK-31042          
1 58739U 24005M   26158.07185032 -.00002346  00000+0 -75789-4 0  9997
2 58739  43.0023  74.9519 0001420 272.3717  87.6972 15.27569179134118
STARLINK-31159          
1 58740U 24005N   26158.04486114  .00001845  00000+0  76540-4 0  9998
2 58740  43.0050  74.7512 0001526 269.1556  90.9121 15.27590791134200
STARLINK-31148          
1 58741U 24005P   26157.46410802  .00003083  00000+0  12147-3 0  9993
2 58741  43.0030  78.1482 0002219 275.8163  84.2436 15.27597554134020
STARLINK-31151          
1 58742U 24005Q   26156.09870742  .00001235  00000+0  54375-4 0  9992
2 58742  42.9957  85.9654 0000753 242.1104 117.9672 15.27581598133900
STARLINK-31156          
1 58743U 24005R   26158.06414788 -.00000700  00000+0 -15938-4 0  9996
2 58743  43.0022  74.9140 0000794 266.7923  93.2838 15.27581332134165
STARLINK-31167          
1 58744U 24005S   26158.07332067  .00001446  00000+0  62051-4 0  9991
2 58744  43.0017 289.5186 0001293 272.6712  87.3992 15.27587901135873
STARLINK-31176          
1 58745U 24005T   26158.07828455  .00000623  00000+0  32147-4 0  9992
2 58745  43.0036  75.0152 0000794 301.0768  59.0006 15.27581224134153
STARLINK-31181          
1 58746U 24005U   26157.62558078  .00002871  00000+0  11377-3 0  9992
2 58746  43.0000 285.2584 0000777 116.8264 243.2668 15.27595564135887
STARLINK-31183          
1 58747U 24005V   26157.49750100  .00000972  00000+0  44818-4 0  9995
2 58747  43.0035  78.3953 0001498 261.7757  98.2924 15.27586949134121
STARLINK-31165          
1 58748U 24005W   26157.49365062  .00001563  00000+0  66287-4 0  9996
2 58748  43.0041  78.3654 0001236 253.1269 106.9447 15.27588479134026
STARLINK-31160          
1 58749U 24005X   26157.50777743  .00003553  00000+0  13856-3 0  9996
2 58749  43.0075  78.4060 0002091 275.6495  84.4118 15.27589182134023
STARLINK-31179          
1 58750U 24005Y   26156.51931359  .00000962  00000+0  44492-4 0  9995
2 58750  43.0047  83.9462 0001424 249.9294 110.1404 15.27573515133871
STARLINK-31127          
1 58765U 24011A   26157.73882830  .00001445  00000+0  60888-4 0  9996
2 58765  53.1622 320.0878 0001175  78.8149 281.2984 15.30204959133909
STARLINK-31114          
1 58766U 24011B   26158.13969356 -.00000204  00000+0  52398-5 0  9992
2 58766  53.1622 316.2163 0000983  87.7715 272.3399 15.30196129133997
STARLINK-31140          
1 58767U 24011C   26157.86312292  .00007137  00000+0  25264-3 0  9994
2 58767  53.1611 319.4408 0000841  89.5234 270.5863 15.30228900133924
STARLINK-31146          
1 58769U 24011E   26157.59870574  .00003270  00000+0  12246-3 0  9998
2 58769  53.1602 320.6320 0000993  89.4473 270.6642 15.30205002133884
STARLINK-31143          
1 58770U 24011F   26155.70141248 -.00001128  00000+0 -25945-4 0  9993
2 58770  53.1610 329.4109 0001273 127.5287 232.5830 15.30205215133596
STARLINK-31135          
1 58771U 24011G   26157.73724827  .00001537  00000+0  64015-4 0  9992
2 58771  53.1618 317.9627 0001331  61.4087 298.7048 15.30205296133933
STARLINK-31136          
1 58772U 24011H   26157.80074208  .00094199  00000+0  31122-2 0  9999
2 58772  53.1610 319.7577 0001368 102.8961 257.2193 15.30616565133904
STARLINK-31073          
1 58773U 24011J   26157.74199237  .00001851  00000+0  74601-4 0  9997
2 58773  53.1619 320.1014 0001087  68.2405 291.8711 15.30205684133908
STARLINK-31122          
1 58774U 24011K   26158.14021210  .00000786  00000+0  38631-4 0  9997
2 58774  53.1606 318.3178 0000679  64.6375 295.4697 15.30203572133960
STARLINK-31123          
1 58775U 24011L   26158.16622877 -.00003517  00000+0 -93130-4 0  9998
2 58775  53.1621 317.7724 0000536  22.6293 337.4733 15.34364189  7226
STARLINK-31117          
1 58776U 24011M   26158.14762859 -.00000314  00000+0  15340-5 0  9991
2 58776  53.1626 318.3635 0001348 101.3813 258.7340 15.30183623133963
STARLINK-31132          
1 58777U 24011N   26157.44355422  .00001093  00000+0  46986-4 0  9991
2 58777  53.1601 230.8639 0001540  86.3450 273.7728 15.31710966135159
STARLINK-31120          
1 58778U 24011P   26158.14104573 -.00001946  00000+0 -46477-4 0  9993
2 58778  53.1609 318.3195 0001154  85.9280 274.1854 15.34400319133967
STARLINK-31142          
1 58779U 24011Q   26158.14549026 -.00003025  00000+0 -90096-4 0  9996
2 58779  53.1600 318.3530 0000878 100.9444 259.1655 15.30187984133962
STARLINK-31099          
1 58781U 24011S   26158.14233676 -.00000271  00000+0  29753-5 0  9992
2 58781  53.1611 318.3287 0001057  95.6584 264.4538 15.30190974133963
